0 FENGYUN 1C DEB
1 30008U 99025MH  13281.49986354  .00001882  00000-0  73554-3 0  9029
2 30008 099.4184 116.1258 0068417 193.5806 229.2984 14.29644218350634
0 FENGYUN 1C DEB
1 30008U 99025MH  13282.54059148  .00002209  00000-0  85941-3 0  9036
2 30008 099.4182 117.2509 0068439 190.5931 185.6444 14.29657467350785
0 FENGYUN 1C DEB
1 30008U 99025MH  13283.82086831  .00003077  00000-0  11894-2 0  9047
2 30008 099.4184 118.6337 0068427 186.9327 294.9280 14.29660841350979
0 FENGYUN 1C DEB
1 30008U 99025MH  13286.18931840  .00002388  00000-0  92745-3 0  9069
2 30008 099.4177 121.1936 0068506 180.1371 244.8623 14.29669649351306
0 FENGYUN 1C DEB
1 30008U 99025MH  13287.51685873  .00003106  00000-0  12001-2 0  9075
2 30008 099.4173 122.6287 0068434 176.2645 237.5520 14.29676108351490
0 FENGYUN 1C DEB
1 30008U 99025MH  13288.86046772  .00003461  00000-0  13344-2 0  9089
2 30008 099.4169 124.0810 0068547 172.4569 312.8757 14.29689427351690
0 FENGYUN 1C DEB
1 30008U 99025MH  13290.18405255  .00003443  00000-0  13276-2 0  9097
2 30008 099.4166 125.5115 0068609 168.6646 285.2263 14.29694960351876
0 FENGYUN 1C DEB
1 30008U 99025MH  13291.50586654  .00002865  00000-0  11076-2 0  9102
2 30008 099.4165 126.9404 0068561 164.8112 248.5572 14.29702727352062
0 FENGYUN 1C DEB
1 30008U 99025MH  13292.84767047  .00003195  00000-0  12328-2 0  9116
2 30008 099.4166 128.3908 0068590 160.9393 314.7790 14.29709705352250
0 FENGYUN 1C DEB
1 30008U 99025MH  13294.17328573  .00003856  00000-0  14836-2 0  9122
2 30008 099.4168 129.8236 0068600 157.1213 297.7088 14.29717682352447
0 FENGYUN 1C DEB
1 30008U 99025MH  13295.49634506  .00003897  00000-0  14987-2 0  9137
2 30008 099.4169 131.2537 0068648 153.3355 267.4934 14.29726935352632
